{"type": "FeatureCollection", "features": [{"type": "Feature", "properties": {"norad_id": 24876, "name": "GPS BIIR-2  (PRN 13)", "group": "gps-ops", "lat": -51.10869956546592, "lon": 49.07215401174481, "alt_km": 20340.700344360917, "timestamp": "2025-12-04T15:47:54.356197+00:00", "meta": {"OBJECT_NAME": "GPS BIIR-2  (PRN 13)", "OBJECT_ID": "1997-035A", "EPOCH": "2025-12-03T06:13:52.381920", "MEAN_MOTION": 2.00563443, "ECCENTRICITY": 0.00966798, "INCLINATION": 55.8906, "RA_OF_ASC_NODE": 106.2397, "ARG_OF_PERICENTER": 57.0195, "MEAN_ANOMALY": 303.8734, "EPHEMERIS_TYPE": 0, "CLASSIFICATION_TYPE": "U", "NORAD_CAT_ID": 24876, "ELEMENT_SET_NO": 999, "REV_AT_EPOCH": 20802, "BSTAR": 0, "MEAN_MOTION_DOT": 1.7e-07, "MEAN_MOTION_DDOT": 0}, "tle": {"line1": "1 24876U 97035A   25337.25963405  .00000017  00000+0  00000+0 0  9991", "line2": "2 24876  55.8906 106.2397 0096679  57.0195 303.8734  2.00563443208021"}}, "geometry": {"type": "Point", "coordinates": [49.07215401174481, -51.10869956546592]}}, {"type": "Feature", "properties": {"norad_id": 26360, "name": "GPS BIIR-4  (PRN 20)", "group": "gps-ops", "lat": 18.531397368342613, "lon": 40.73676231231395, "alt_km": 20260.575394935764, "timestamp": "2025-12-04T15:47:54.356233+00:00", "meta": {"OBJECT_NAME": "GPS BIIR-4  (PRN 20)", "OBJECT_ID": "2000-025A", "EPOCH": "2025-12-03T20:43:35.059008", "MEAN_MOTION": 2.0056828, "ECCENTRICITY": 0.00387989, "INCLINATION": 55.0399, "RA_OF_ASC_NODE": 27.1971, "ARG_OF_PERICENTER": 241.132, "MEAN_ANOMALY": 287.663, "EPHEMERIS_TYPE": 0, "CLASSIFICATION_TYPE": "U", "NORAD_CAT_ID": 26360, "ELEMENT_SET_NO": 999, "REV_AT_EPOCH": 18735, "BSTAR": 0, "MEAN_MOTION_DOT": -7.1e-07, "MEAN_MOTION_DDOT": 0}, "tle": {"line1": "1 26360U 00025A   25337.86360022 -.00000071  00000+0  00000+0 0  9998", "line2": "2 26360  55.0399  27.1971 0038798 241.1320 287.6630  2.00568280187352"}}, "geometry": {"type": "Point", "coordinates": [40.73676231231395, 18.531397368342613]}}, {"type": "Feature", "properties": {"norad_id": 26407, "name": "GPS BIIR-5  (PRN 22)", "group": "gps-ops", "lat": -32.24665184501141, "lon": 69.21141672740396, "alt_km": 20129.58166972244, "timestamp": "2025-12-04T15:47:54.356251+00:00", "meta": {"OBJECT_NAME": "GPS BIIR-5  (PRN 22)", "OBJECT_ID": "2000-040A", "EPOCH": "2025-12-03T20:42:39.159072", "MEAN_MOTION": 2.00567714, "ECCENTRICITY": 0.0126499, "INCLINATION": 54.893, "RA_OF_ASC_NODE": 222.9221, "ARG_OF_PERICENTER": 301.6438, "MEAN_ANOMALY": 66.2593, "EPHEMERIS_TYPE": 0, "CLASSIFICATION_TYPE": "U", "NORAD_CAT_ID": 26407, "ELEMENT_SET_NO": 999, "REV_AT_EPOCH": 18603, "BSTAR": 0, "MEAN_MOTION_DOT": 6e-07, "MEAN_MOTION_DDOT": 0}, "tle": {"line1": "1 26407U 00040A   25337.86295323  .00000060  00000+0  00000+0 0  9995", "line2": "2 26407  54.8930 222.9221 0126499 301.6438  66.2593  2.00567714186037"}}, "geometry": {"type": "Point", "coordinates": [69.21141672740396, -32.24665184501141]}}, {"type": "Feature", "properties": {"norad_id": 27663, "name": "GPS BIIR-8  (PRN 16)", "group": "gps-ops", "lat": -2.8654448925025426, "lon": -139.30729551904167, "alt_km": 19954.87100804332, "timestamp": "2025-12-04T15:47:54.356265+00:00", "meta": {"OBJECT_NAME": "GPS BIIR-8  (PRN 16)", "OBJECT_ID": "2003-005A", "EPOCH": "2025-12-02T11:09:18.319104", "MEAN_MOTION": 2.00571356, "ECCENTRICITY": 0.014704, "INCLINATION": 54.9261, "RA_OF_ASC_NODE": 222.787, "ARG_OF_PERICENTER": 51.656, "MEAN_ANOMALY": 162.4446, "EPHEMERIS_TYPE": 0, "CLASSIFICATION_TYPE": "U", "NORAD_CAT_ID": 27663, "ELEMENT_SET_NO": 999, "REV_AT_EPOCH": 16736, "BSTAR": 0, "MEAN_MOTION_DOT": 5.6e-07, "MEAN_MOTION_DDOT": 0}, "tle": {"line1": "1 27663U 03005A   25336.46479536  .00000056  00000+0  00000+0 0  9994", "line2": "2 27663  54.9261 222.7870 0147040  51.6560 162.4446  2.00571356167369"}}, "geometry": {"type": "Point", "coordinates": [-139.30729551904167, -2.8654448925025426]}}, {"type": "Feature", "properties": {"norad_id": 28190, "name": "GPS BIIR-11 (PRN 19)", "group": "gps-ops", "lat": 18.79680747139191, "lon": 89.73811932651795, "alt_km": 19897.43111489789, "timestamp": "2025-12-04T15:47:54.356280+00:00", "meta": {"OBJECT_NAME": "GPS BIIR-11 (PRN 19)", "OBJECT_ID": "2004-009A", "EPOCH": "2025-12-03T10:35:53.866752", "MEAN_MOTION": 2.00560969, "ECCENTRICITY": 0.01082073, "INCLINATION": 54.9946, "RA_OF_ASC_NODE": 283.5937, "ARG_OF_PERICENTER": 167.4902, "MEAN_ANOMALY": 191.0311, "EPHEMERIS_TYPE": 0, "CLASSIFICATION_TYPE": "U", "NORAD_CAT_ID": 28190, "ELEMENT_SET_NO": 999, "REV_AT_EPOCH": 15901, "BSTAR": 0, "MEAN_MOTION_DOT": -4.4e-07, "MEAN_MOTION_DDOT": 0}, "tle": {"line1": "1 28190U 04009A   25337.44159568 -.00000044  00000+0  00000+0 0  9992", "line2": "2 28190  54.9946 283.5937 0108207 167.4902 191.0311  2.00560969159012"}}, "geometry": {"type": "Point", "coordinates": [89.73811932651795, 18.79680747139191]}}, {"type": "Feature", "properties": {"norad_id": 28474, "name": "GPS BIIR-13 (PRN 02)", "group": "gps-ops", "lat": -28.09015359983305, "lon": 174.47661098487583, "alt_km": 20207.474289158097, "timestamp": "2025-12-04T15:47:54.356293+00:00", "meta": {"OBJECT_NAME": "GPS BIIR-13 (PRN 02)", "OBJECT_ID": "2004-045A", "EPOCH": "2025-12-02T14:51:16.748640", "MEAN_MOTION": 2.00568864, "ECCENTRICITY": 0.01705399, "INCLINATION": 55.2456, "RA_OF_ASC_NODE": 332.8132, "ARG_OF_PERICENTER": 308.8127, "MEAN_ANOMALY": 235.5488, "EPHEMERIS_TYPE": 0, "CLASSIFICATION_TYPE": "U", "NORAD_CAT_ID": 28474, "ELEMENT_SET_NO": 999, "REV_AT_EPOCH": 15448, "BSTAR": 0, "MEAN_MOTION_DOT": -6.2e-07, "MEAN_MOTION_DDOT": 0}, "tle": {"line1": "1 28474U 04045A   25336.61894385 -.00000062  00000+0  00000+0 0  9998", "line2": "2 28474  55.2456 332.8132 0170539 308.8127 235.5488  2.00568864154486"}}, "geometry": {"type": "Point", "coordinates": [174.47661098487583, -28.09015359983305]}}, {"type": "Feature", "properties": {"norad_id": 28874, "name": "GPS BIIRM-1 (PRN 17)", "group": "gps-ops", "lat": 4.771825571434076, "lon": 97.65988478919502, "alt_km": 20352.87179341914, "timestamp": "2025-12-04T15:47:54.356306+00:00", "meta": {"OBJECT_NAME": "GPS BIIRM-1 (PRN 17)", "OBJECT_ID": "2005-038A", "EPOCH": "2025-12-02T16:12:27.400896", "MEAN_MOTION": 2.00548806, "ECCENTRICITY": 0.01328204, "INCLINATION": 55.0411, "RA_OF_ASC_NODE": 281.1063, "ARG_OF_PERICENTER": 293.4087, "MEAN_ANOMALY": 250.3584, "EPHEMERIS_TYPE": 0, "CLASSIFICATION_TYPE": "U", "NORAD_CAT_ID": 28874, "ELEMENT_SET_NO": 999, "REV_AT_EPOCH": 14789, "BSTAR": 0, "MEAN_MOTION_DOT": -4.3e-07, "MEAN_MOTION_DDOT": 0}, "tle": {"line1": "1 28874U 05038A   25336.67531714 -.00000043  00000+0  00000+0 0  9994", "line2": "2 28874  55.0411 281.1063 0132820 293.4087 250.3584  2.00548806147896"}}, "geometry": {"type": "Point", "coordinates": [97.65988478919502, 4.771825571434076]}}, {"type": "Feature", "properties": {"norad_id": 29486, "name": "GPS BIIRM-2 (PRN 31)", "group": "gps-ops", "lat": 53.41733658822942, "lon": -128.1131782137651, "alt_km": 19924.4146650325, "timestamp": "2025-12-04T15:47:54.356319+00:00", "meta": {"OBJECT_NAME": "GPS BIIRM-2 (PRN 31)", "OBJECT_ID": "2006-042A", "EPOCH": "2025-12-03T19:13:38.940960", "MEAN_MOTION": 2.00554392, "ECCENTRICITY": 0.01073584, "INCLINATION": 54.6928, "RA_OF_ASC_NODE": 159.0956, "ARG_OF_PERICENTER": 51.7428, "MEAN_ANOMALY": 128.6988, "EPHEMERIS_TYPE": 0, "CLASSIFICATION_TYPE": "U", "NORAD_CAT_ID": 29486, "ELEMENT_SET_NO": 999, "REV_AT_EPOCH": 14047, "BSTAR": 0, "MEAN_MOTION_DOT": 1e-06, "MEAN_MOTION_DDOT": 0}, "tle": {"line1": "1 29486U 06042A   25337.80114515  .00000100  00000+0  00000+0 0  9995", "line2": "2 29486  54.6928 159.0956 0107358  51.7428 128.6988  2.00554392140479"}}, "geometry": {"type": "Point", "coordinates": [-128.1131782137651, 53.41733658822942]}}, {"type": "Feature", "properties": {"norad_id": 29601, "name": "GPS BIIRM-3 (PRN 12)", "group": "gps-ops", "lat": 33.86117953082692, "lon": 13.683975767841066, "alt_km": 20026.08856687998, "timestamp": "2025-12-04T15:47:54.356332+00:00", "meta": {"OBJECT_NAME": "GPS BIIRM-3 (PRN 12)", "OBJECT_ID": "2006-052A", "EPOCH": "2025-12-03T11:22:11.769312", "MEAN_MOTION": 2.00572797, "ECCENTRICITY": 0.00875469, "INCLINATION": 54.9733, "RA_OF_ASC_NODE": 221.766, "ARG_OF_PERICENTER": 87.3435, "MEAN_ANOMALY": 273.7468, "EPHEMERIS_TYPE": 0, "CLASSIFICATION_TYPE": "U", "NORAD_CAT_ID": 29601, "ELEMENT_SET_NO": 999, "REV_AT_EPOCH": 13948, "BSTAR": 0, "MEAN_MOTION_DOT": 6.2e-07, "MEAN_MOTION_DDOT": 0}, "tle": {"line1": "1 29601U 06052A   25337.47374733  .00000062  00000+0  00000+0 0  9995", "line2": "2 29601  54.9733 221.7660 0087546  87.3435 273.7468  2.00572797139486"}}, "geometry": {"type": "Point", "coordinates": [13.683975767841066, 33.86117953082692]}}, {"type": "Feature", "properties": {"norad_id": 32260, "name": "GPS BIIRM-4 (PRN 15)", "group": "gps-ops", "lat": -53.49120845974905, "lon": 8.712887129475998, "alt_km": 20615.18914972665, "timestamp": "2025-12-04T15:47:54.356344+00:00", "meta": {"OBJECT_NAME": "GPS BIIRM-4 (PRN 15)", "OBJECT_ID": "2007-047A", "EPOCH": "2025-12-02T18:46:05.230272", "MEAN_MOTION": 2.00564824, "ECCENTRICITY": 0.01643753, "INCLINATION": 53.9483, "RA_OF_ASC_NODE": 88.1698, "ARG_OF_PERICENTER": 85.1293, "MEAN_ANOMALY": 276.722, "EPHEMERIS_TYPE": 0, "CLASSIFICATION_TYPE": "U", "NORAD_CAT_ID": 32260, "ELEMENT_SET_NO": 999, "REV_AT_EPOCH": 13287, "BSTAR": 0, "MEAN_MOTION_DOT": -1.7e-07, "MEAN_MOTION_DDOT": 0}, "tle": {"line1": "1 32260U 07047A   25336.78200498 -.00000017  00000+0  00000+0 0  9995", "line2": "2 32260  53.9483  88.1698 0164375  85.1293 276.7220  2.00564824132879"}}, "geometry": {"type": "Point", "coordinates": [8.712887129475998, -53.49120845974905]}}]}